NORAD_CAT_ID,OBJECT_NAME,OBJECT_TYPE,EPOCH,MEAN_MOTION,ECCENTRICITY,INCLINATION,RA_OF_ASC_NODE,ARG_OF_PERICENTER,MEAN_ANOMALY,BSTAR,MEAN_MOTION_DOT,MEAN_MOTION_DDOT,TLE_LINE0,TLE_LINE1,TLE_LINE2,SEMIMAJOR_AXIS,PERIOD,APOGEE,PERIGEE,DECAYED
53398.0,STARLINK-4512,PAYLOAD,2023-06-20 14:35:40,15.08839553,0.0001245,53.217,262.2376,79.0574,281.0558,0.00029861,4.468e-05,0.0,0 STARLINK-4512,1 53398U 22097L   23171.60811232  .00004468  00000-0  29861-3 0  9996,2 53398  53.2170 262.2376 0001245  79.0574 281.0558 15.08839553 48592,6917.882,95.438,540.608,538.885,0.0
53398.0,STARLINK-4512,PAYLOAD,2023-06-20 22:32:36,15.08836996,0.0001179,53.2165,260.7512,74.2878,285.8244,6.0946e-05,6.82e-06,0.0,0 STARLINK-4512,1 53398U 22097L   23171.93931457  .00000682  00000-0  60946-4 0  9998,2 53398  53.2165 260.7512 0001179  74.2878 285.8244 15.08836996 48155,6917.89,95.438,540.57,538.939,0.0
53398.0,STARLINK-4512,PAYLOAD,2023-06-21 12:51:04,15.08845794,0.0001039,53.2157,258.077,79.2561,280.8548,9.2515e-05,1.185e-05,0.0,0 STARLINK-4512,1 53398U 22097L   23172.53547131  .00001185  00000-0  92515-4 0  9993,2 53398  53.2157 258.0770 0001039  79.2561 280.8548 15.08845794 48733,6917.863,95.437,540.446,539.009,0.0
53398.0,STARLINK-4512,PAYLOAD,2023-06-21 22:23:23,15.0884014,0.0001035,53.2155,256.293,79.4697,280.6412,7.9666e-06,-1.61e-06,0.0,0 STARLINK-4512,1 53398U 22097L   23172.93291399 -.00000161  00000-0  79666-5 0  9996,2 53398  53.2155 256.2930 0001035  79.4697 280.6412 15.08840140 48308,6917.88,95.438,540.461,539.029,0.0
53398.0,STARLINK-4512,PAYLOAD,2023-06-22 12:41:52,15.08812201,0.0001474,53.2148,253.6161,149.0648,211.0431,-0.00035114,-5.868e-05,0.0,0 STARLINK-4512,1 53398U 22097L   23173.52908539 -.00005868  00000-0 -35114-3 0  9991,2 53398  53.2148 253.6161 0001474 149.0648 211.0431 15.08812201 48399,6917.965,95.439,540.85,538.811,0.0
53398.0,STARLINK-4512,PAYLOAD,2023-06-23 10:57:15,15.08846577,9.63e-05,53.2152,249.4523,103.7896,256.3204,0.00014577,2.033e-05,0.0,0 STARLINK-4512,1 53398U 22097L   23174.45643197  .00002033  00000-0  14577-3 0  9999,2 53398  53.2152 249.4523 0000963 103.7896 256.3204 15.08846577 48532,6917.86,95.437,540.391,539.059,0.0
53398.0,STARLINK-4512,PAYLOAD,2023-06-23 22:04:57,15.08840625,9.72e-05,53.2156,247.3723,88.8354,271.275,8.1448e-05,1.009e-05,0.0,0 STARLINK-4512,1 53398U 22097L   23174.92011546  .00001009  00000-0  81448-4 0  9992,2 53398  53.2156 247.3723 0000972  88.8354 271.2750 15.08840625 48605,6917.878,95.438,540.416,539.071,0.0
53398.0,STARLINK-4512,PAYLOAD,2023-06-24 21:55:45,15.08834098,0.0001096,53.2153,242.909,141.0021,219.105,0.00028264,4.213e-05,0.0,0 STARLINK-4512,1 53398U 22097L   23175.91372004  .00004213  00000-0  28264-3 0  9997,2 53398  53.2153 242.9090 0001096 141.0021 219.1050 15.08834098 48758,6917.898,95.438,540.522,539.005,0.0
53398.0,STARLINK-4512,PAYLOAD,2023-06-25 09:03:26,15.08844388,0.0001045,53.215,240.8289,91.4071,268.7041,0.00010665,1.41e-05,0.0,0 STARLINK-4512,1 53398U 22097L   23176.37739565  .00001410  00000-0  10665-3 0  9999,2 53398  53.2150 240.8289 0001045  91.4071 268.7041 15.08844388 48820,6917.867,95.437,540.455,539.009,0.0
53398.0,STARLINK-4512,PAYLOAD,2023-06-25 21:46:32,15.08835756,0.0001003,53.2142,238.4488,99.4127,260.6979,7.1147e-05,8.45e-06,0.0,0 STARLINK-4512,1 53398U 22097L   23176.90731932  .00000845  00000-0  71147-4 0  9992,2 53398  53.2142 238.4488 0001003  99.4127 260.6979 15.08835756 48908,6917.893,95.438,540.452,539.064,0.0
53398.0,STARLINK-4512,PAYLOAD,2023-06-27 10:20:24,15.08841176,9.63e-05,53.2168,231.6111,84.3223,275.7879,0.00013012,1.784e-05,0.0,0 STARLINK-4512,1 53398U 22097L   23178.43083809  .00001784  00000-0  13012-3 0  9994,2 53398  53.2168 231.6111 0000963  84.3223 275.7879 15.08841176 49133,6917.877,95.437,540.408,539.076,0.0
53398.0,STARLINK-4512,PAYLOAD,2023-06-28 03:49:39,15.08833812,0.0001087,53.2161,228.3391,79.6065,280.5049,9.7337e-05,1.261e-05,0.0,0 STARLINK-4512,1 53398U 22097L   23179.15948381  .00001261  00000-0  97337-4 0  9992,2 53398  53.2161 228.3391 0001087  79.6065 280.5049 15.08833812 49241,6917.899,95.438,540.516,539.012,0.0
53398.0,STARLINK-4512,PAYLOAD,2023-06-28 14:57:20,15.08842608,0.0001052,53.2159,226.2565,75.7221,284.3888,0.00011503,1.544e-05,0.0,0 STARLINK-4512,1 53398U 22097L   23179.62315838  .00001544  00000-0  11503-3 0  9993,2 53398  53.2159 226.2565 0001052  75.7221 284.3888 15.08842608 49315,6917.872,95.437,540.465,539.01,0.0
53398.0,STARLINK-4512,PAYLOAD,2023-06-29 03:40:26,15.0883889,0.0001056,53.2158,223.877,78.1026,282.0085,2.6845e-06,-2.45e-06,0.0,0 STARLINK-4512,1 53398U 22097L   23180.15308489 -.00000245  00000-0  26845-5 0  9992,2 53398  53.2158 223.8770 0001056  78.1026 282.0085 15.08838890 49399,6917.884,95.438,540.479,539.018,0.0
53398.0,STARLINK-4512,PAYLOAD,2023-07-01 08:08:10,15.08833083,0.0001003,53.2154,214.0659,85.1214,274.9892,1.7859e-05,-4e-08,0.0,0 STARLINK-4512,1 53398U 22097L   23182.33901020 -.00000004  00000-0  17859-4 0  9991,2 53398  53.2154 214.0659 0001003  85.1214 274.9892 15.08833083 49724,6917.902,95.438,540.46,539.073,0.0
53398.0,STARLINK-4512,PAYLOAD,2023-07-02 09:34:20,15.08839794,0.0001009,53.2154,209.3075,84.2494,275.8613,3.6838e-05,2.99e-06,0.0,0 STARLINK-4512,1 53398U 22097L   23183.39884706  .00000299  00000-0  36838-4 0  9992,2 53398  53.2154 209.3075 0001009  84.2494 275.8613 15.08839794 49882,6917.881,95.438,540.444,539.048,0.0
53398.0,STARLINK-4512,PAYLOAD,2023-07-04 01:18:58,15.08839212,0.000102,53.2154,201.8736,81.591,278.5197,3.9438e-05,3.4e-06,0.0,0 STARLINK-4512,1 53398U 22097L   23185.05484694  .00000340  00000-0  39438-4 0  9995,2 53398  53.2154 201.8736 0001020  81.5910 278.5197 15.08839212 50131,6917.883,95.438,540.453,539.042,0.0
53398.0,STARLINK-4512,PAYLOAD,2023-07-04 07:40:30,15.08845802,0.0001346,53.2154,200.6838,156.2121,203.8934,7.8336e-05,9.59e-06,0.0,0 STARLINK-4512,1 53398U 22097L   23185.31979790  .00000959  00000-0  78336-4 0  9996,2 53398  53.2154 200.6838 0001346 156.2121 203.8934 15.08845802 50172,6917.863,95.437,540.659,538.797,0.0
53398.0,STARLINK-4512,PAYLOAD,2023-07-04 12:26:40,15.08840321,8.21e-05,53.2154,199.7914,99.0412,261.0673,3.4853e-05,2.67e-06,0.0,0 STARLINK-4512,1 53398U 22097L   23185.51852543  .00000267  00000-0  34853-4 0  9992,2 53398  53.2154 199.7914 0000821  99.0412 261.0673 15.08840321 50200,6917.879,95.438,540.312,539.176,0.0
53398.0,STARLINK-4512,PAYLOAD,2023-07-05 23:25:09,15.08837252,9.59e-05,53.2154,193.2502,81.6561,278.454,5.8253e-05,6.39e-06,0.0,0 STARLINK-4512,1 53398U 22097L   23186.97580711  .00000639  00000-0  58253-4 0  9991,2 53398  53.2154 193.2502 0000959  81.6561 278.4540 15.08837252 50424,6917.889,95.438,540.417,539.09,0.0
53398.0,STARLINK-4512,PAYLOAD,2023-07-07 00:51:20,15.08836993,0.0001007,53.2155,188.4925,82.6968,277.4138,5.3806e-05,5.69e-06,0.0,0 STARLINK-4512,1 53398U 22097L   23188.03564952  .00000569  00000-0  53806-4 0  9990,2 53398  53.2155 188.4925 0001007  82.6968 277.4138 15.08836993 50587,6917.89,95.438,540.451,539.058,0.0
53398.0,STARLINK-4512,PAYLOAD,2023-07-08 10:14:26,15.08840347,0.0001034,53.2152,182.2475,81.7437,278.3673,5.0876e-05,5.22e-06,0.0,0 STARLINK-4512,1 53398U 22097L   23189.42668983  .00000522  00000-0  50876-4 0  9996,2 53398  53.2152 182.2475 0001034  81.7437 278.3673 15.08840347 50792,6917.879,95.438,540.46,539.029,0.0
53398.0,STARLINK-4512,PAYLOAD,2023-07-10 05:09:50,15.08840561,0.0001045,53.2155,174.2179,84.2494,275.8617,7.0881e-05,8.4e-06,0.0,0 STARLINK-4512,1 53398U 22097L   23191.21517092  .00000840  00000-0  70881-4 0  9991,2 53398  53.2155 174.2179 0001045  84.2494 275.8617 15.08840561 51069,6917.879,95.438,540.467,539.021,0.0
53398.0,STARLINK-4512,PAYLOAD,2023-07-11 08:11:23,15.08841889,0.0001079,53.2156,169.1626,84.3974,275.7141,6.057e-05,6.76e-06,0.0,0 STARLINK-4512,1 53398U 22097L   23192.34124988  .00000676  00000-0  60570-4 0  9995,2 53398  53.2156 169.1626 0001079  84.3974 275.7141 15.08841889 51235,6917.875,95.437,540.486,538.993,0.0
53398.0,STARLINK-4512,PAYLOAD,2023-07-12 04:51:25,15.08838249,0.0001143,53.2158,165.2963,89.6563,270.456,7.2383e-06,-1.73e-06,0.0,0 STARLINK-4512,1 53398U 22097L   23193.20237403 -.00000173  00000-0  72383-5 0  9997,2 53398  53.2158 165.2963 0001143  89.6563 270.4560 15.08838249 51369,6917.886,95.438,540.541,538.96,0.0
53398.0,STARLINK-4512,PAYLOAD,2023-07-13 06:17:35,15.0883911,0.0001205,53.216,160.5398,87.6741,272.4389,8.2157e-06,-1.57e-06,0.0,0 STARLINK-4512,1 53398U 22097L   23194.26221590 -.00000157  00000-0  82157-5 0  9996,2 53398  53.2160 160.5398 0001205  87.6741 272.4389 15.08839110 51524,6917.883,95.438,540.582,538.915,0.0
53398.0,STARLINK-4512,PAYLOAD,2023-07-14 07:43:45,15.0884198,0.000129,53.2162,155.7812,86.995,273.119,7.5314e-05,9.11e-06,0.0,0 STARLINK-4512,1 53398U 22097L   23195.32205550  .00000911  00000-0  75314-4 0  9995,2 53398  53.2162 155.7812 0001290  86.9950 273.1190 15.08841980 51684,6917.874,95.437,540.632,538.847,0.0
53398.0,STARLINK-4512,PAYLOAD,2023-07-16 02:39:11,15.08833429,0.0001245,53.2167,147.7546,96.3732,263.7402,-1.9675e-05,-6.01e-06,0.0,0 STARLINK-4512,1 53398U 22097L   23197.11054724 -.00000601  00000-0 -19675-4 0  9995,2 53398  53.2167 147.7546 0001245  96.3732 263.7402 15.08833429 51957,6917.9,95.438,540.627,538.904,0.0
53398.0,STARLINK-4512,PAYLOAD,2023-07-16 20:08:25,15.08836408,0.0001145,53.2166,144.4816,87.1017,273.0106,4.9332e-05,4.97e-06,0.0,0 STARLINK-4512,1 53398U 22097L   23197.83918514  .00000497  00000-0  49332-4 0  9994,2 53398  53.2166 144.4816 0001145  87.1017 273.0106 15.08836408 52061,6917.891,95.438,540.548,538.964,0.0
53398.0,STARLINK-4512,PAYLOAD,2023-07-18 00:45:21,15.08843075,0.0001244,53.2166,139.1294,89.4061,270.7073,0.00013907,1.926e-05,0.0,0 STARLINK-4512,1 53398U 22097L   23199.03149812  .00001926  00000-0  13907-3 0  9991,2 53398  53.2166 139.1294 0001244  89.4061 270.7073 15.08843075 52241,6917.871,95.437,540.597,538.875,0.0
